{"type": "FeatureCollection", "features": [ {"type": "Feature", "properties": {"norad_id": 66386, "name": "STARLINK-35651", "group": "last-30-days", "lat": 8.933703543968374, "lon": 118.16506439058108, "alt_km": 444.7564393718221, "timestamp": "2025-12-04T03:47:53.334785+00:00", "meta": {"OBJECT_NAME": "STARLINK-35651", "OBJECT_ID": "2025-257G", "EPOCH": "2025-12-03T12:00:02.998944", "MEAN_MOTION": 15.4257294, "ECCENTRICITY": 8.37e-05, "INCLINATION": 53.1593, "RA_OF_ASC_NODE": 308.0442, "ARG_OF_PERICENTER": 98.0056, "MEAN_ANOMALY": 16.1282, "EPHEMERIS_TYPE": 0, "CLASSIFICATION_TYPE": "U", "NORAD_CAT_ID": 66386, "ELEMENT_SET_NO": 999, "REV_AT_EPOCH": 501, "BSTAR": -0.041343, "MEAN_MOTION_DOT": -0.01633528, "MEAN_MOTION_DDOT": 0}, "tle": {"line1": "1 66386U 25257G   25337.50003471 -.01633528  00000+0 -41343-1 0  9995", "line2": "2 66386  53.1593 308.0442 0000837  98.0056  16.1282 15.42572940  5019"}}, "geometry": {"type": "Point", "coordinates": [118.16506439058108, 8.933703543968374]}}, {"type": "Feature", "properties": {"norad_id": 66387, "name": "STARLINK-35661", "group": "last-30-days", "lat": 7.531126772384616, "lon": 119.24163868534639, "alt_km": 445.5256789559853, "timestamp": "2025-12-04T03:47:53.334799+00:00", "meta": {"OBJECT_NAME": "STARLINK-35661", "OBJECT_ID": "2025-257H", "EPOCH": "2025-12-03T12:00:02.998944", "MEAN_MOTION": 15.42583289, "ECCENTRICITY": 6.48e-05, "INCLINATION": 53.1595, "RA_OF_ASC_NODE": 308.0405, "ARG_OF_PERICENTER": 72.0651, "MEAN_ANOMALY": 43.9259, "EPHEMERIS_TYPE": 0, "CLASSIFICATION_TYPE": "U", "NORAD_CAT_ID": 66387, "ELEMENT_SET_NO": 999, "REV_AT_EPOCH": 501, "BSTAR": -0.043116, "MEAN_MOTION_DOT": -0.01696499, "MEAN_MOTION_DDOT": 0}, "tle": {"line1": "1 66387U 25257H   25337.50003471 -.01696499  00000+0 -43116-1 0  9992", "line2": "2 66387  53.1595 308.0405 0000648  72.0651  43.9259 15.42583289  5014"}}, "geometry": {"type": "Point", "coordinates": [119.24163868534639, 7.531126772384616]}}, {"type": "Feature", "properties": {"norad_id": 66388, "name": "STARLINK-35647", "group": "last-30-days", "lat": -8.555915111748794, "lon": 131.36633933864547, "alt_km": 440.40445043602085, "timestamp": "2025-12-04T03:47:53.334809+00:00", "meta": {"OBJECT_NAME": "STARLINK-35647", "OBJECT_ID": "2025-257J", "EPOCH": "2025-12-03T12:00:02.998944", "MEAN_MOTION": 15.45540877, "ECCENTRICITY": 0.0001277, "INCLINATION": 53.1595, "RA_OF_ASC_NODE": 308.013, "ARG_OF_PERICENTER": 72.1402, "MEAN_ANOMALY": 57.5407, "EPHEMERIS_TYPE": 0, "CLASSIFICATION_TYPE": "U", "NORAD_CAT_ID": 66388, "ELEMENT_SET_NO": 999, "REV_AT_EPOCH": 501, "BSTAR": -0.047006, "MEAN_MOTION_DOT": -0.02041329, "MEAN_MOTION_DDOT": 0}, "tle": {"line1": "1 66388U 25257J   25337.50003471 -.02041329  00000+0 -47006-1 0  9992", "line2": "2 66388  53.1595 308.0130 0001277  72.1402  57.5407 15.45540877  5019"}}, "geometry": {"type": "Point", "coordinates": [131.36633933864547, -8.555915111748794]}}, {"type": "Feature", "properties": {"norad_id": 66389, "name": "STARLINK-35694", "group": "last-30-days", "lat": -24.023843369503062, "lon": 144.37144226275313, "alt_km": 422.33677355860436, "timestamp": "2025-12-04T03:47:53.334820+00:00", "meta": {"OBJECT_NAME": "STARLINK-35694", "OBJECT_ID": "2025-257K", "EPOCH": "2025-12-03T09:51:45.959040", "MEAN_MOTION": 15.49244836, "ECCENTRICITY": 0.0001836, "INCLINATION": 53.159, "RA_OF_ASC_NODE": 308.4226, "ARG_OF_PERICENTER": 114.7525, "MEAN_ANOMALY": 245.3675, "EPHEMERIS_TYPE": 0, "CLASSIFICATION_TYPE": "U", "NORAD_CAT_ID": 66389, "ELEMENT_SET_NO": 999, "REV_AT_EPOCH": 493, "BSTAR": 0.00034878, "MEAN_MOTION_DOT": 0.00018953, "MEAN_MOTION_DDOT": 0}, "tle": {"line1": "1 66389U 25257K   25337.41094860  .00018953  00000+0  34878-3 0  9993", "line2": "2 66389  53.1590 308.4226 0001836 114.7525 245.3675 15.49244836  4939"}}, "geometry": {"type": "Point", "coordinates": [144.37144226275313, -24.023843369503062]}}, {"type": "Feature", "properties": {"norad_id": 66390, "name": "STARLINK-35665", "group": "last-30-days", "lat": -46.681529075798736, "lon": 177.44089849138584, "alt_km": 423.6757606986539, "timestamp": "2025-12-04T03:47:53.334830+00:00", "meta": {"OBJECT_NAME": "STARLINK-35665", "OBJECT_ID": "2025-257L", "EPOCH": "2025-12-03T09:42:52.043328", "MEAN_MOTION": 15.49342524, "ECCENTRICITY": 0.0001361, "INCLINATION": 53.1588, "RA_OF_ASC_NODE": 308.3801, "ARG_OF_PERICENTER": 95.3157, "MEAN_ANOMALY": 264.8007, "EPHEMERIS_TYPE": 0, "CLASSIFICATION_TYPE": "U", "NORAD_CAT_ID": 66390, "ELEMENT_SET_NO": 999, "REV_AT_EPOCH": 503, "BSTAR": 0.001554, "MEAN_MOTION_DOT": 0.00087051, "MEAN_MOTION_DDOT": 0}, "tle": {"line1": "1 66390U 25257L   25337.40476902  .00087051  00000+0  15540-2 0  9994", "line2": "2 66390  53.1588 308.3801 0001361  95.3157 264.8007 15.49342524  5034"}}, "geometry": {"type": "Point", "coordinates": [177.44089849138584, -46.681529075798736]}}, {"type": "Feature", "properties": {"norad_id": 66391, "name": "STARLINK-35656", "group": "last-30-days", "lat": -30.835892226728543, "lon": 151.40504812162447, "alt_km": 452.0332111991247, "timestamp": "2025-12-04T03:47:53.334840+00:00", "meta": {"OBJECT_NAME": "STARLINK-35656", "OBJECT_ID": "2025-257M", "EPOCH": "2025-12-03T12:00:02.998944", "MEAN_MOTION": 15.39582074, "ECCENTRICITY": 0.0001522, "INCLINATION": 53.1593, "RA_OF_ASC_NODE": 307.9196, "ARG_OF_PERICENTER": 65.7595, "MEAN_ANOMALY": 103.6952, "EPHEMERIS_TYPE": 0, "CLASSIFICATION_TYPE": "U", "NORAD_CAT_ID": 66391, "ELEMENT_SET_NO": 999, "REV_AT_EPOCH": 511, "BSTAR": 0.0007703, "MEAN_MOTION_DOT": 0.00030497, "MEAN_MOTION_DDOT": 0}, "tle": {"line1": "1 66391U 25257M   25337.50003471  .00030497  00000+0  77030-3 0  9998", "line2": "2 66391  53.1593 307.9196 0001522  65.7595 103.6952 15.39582074  5112"}}, "geometry": {"type": "Point", "coordinates": [151.40504812162447, -30.835892226728543]}}, {"type": "Feature", "properties": {"norad_id": 66392, "name": "STARLINK-35671", "group": "last-30-days", "lat": -10.862720400502228, "lon": 133.15450541341266, "alt_km": 442.1434940958161, "timestamp": "2025-12-04T03:47:53.334850+00:00", "meta": {"OBJECT_NAME": "STARLINK-35671", "OBJECT_ID": "2025-257N", "EPOCH": "2025-12-03T12:00:02.998944", "MEAN_MOTION": 15.45035717, "ECCENTRICITY": 0.0001329, "INCLINATION": 53.1593, "RA_OF_ASC_NODE": 308.0034, "ARG_OF_PERICENTER": 82.2543, "MEAN_ANOMALY": 51.5514, "EPHEMERIS_TYPE": 0, "CLASSIFICATION_TYPE": "U", "NORAD_CAT_ID": 66392, "ELEMENT_SET_NO": 999, "REV_AT_EPOCH": 501, "BSTAR": -0.048093, "MEAN_MOTION_DOT": -0.02051228, "MEAN_MOTION_DDOT": 0}, "tle": {"line1": "1 66392U 25257N   25337.50003471 -.02051228  00000+0 -48093-1 0  9993", "line2": "2 66392  53.1593 308.0034 0001329  82.2543  51.5514 15.45035717  5016"}}, "geometry": {"type": "Point", "coordinates": [133.15450541341266, -10.862720400502228]}}, {"type": "Feature", "properties": {"norad_id": 66393, "name": "STARLINK-35652", "group": "last-30-days", "lat": -25.69238431574043, "lon": 145.98739257607616, "alt_km": 422.1893823631417, "timestamp": "2025-12-04T03:47:53.334863+00:00", "meta": {"OBJECT_NAME": "STARLINK-35652", "OBJECT_ID": "2025-257P", "EPOCH": "2025-12-03T08:18:23.186016", "MEAN_MOTION": 15.49329559, "ECCENTRICITY": 0.0001485, "INCLINATION": 53.1589, "RA_OF_ASC_NODE": 308.7286, "ARG_OF_PERICENTER": 104.9265, "MEAN_ANOMALY": 255.1908, "EPHEMERIS_TYPE": 0, "CLASSIFICATION_TYPE": "U", "NORAD_CAT_ID": 66393, "ELEMENT_SET_NO": 999, "REV_AT_EPOCH": 492, "BSTAR": 0.0011247, "MEAN_MOTION_DOT": 0.00062649, "MEAN_MOTION_DDOT": 0}, "tle": {"line1": "1 66393U 25257P   25337.34610169  .00062649  00000+0  11247-2 0  9991", "line2": "2 66393  53.1589 308.7286 0001485 104.9265 255.1908 15.49329559  4926"}}, "geometry": {"type": "Point", "coordinates": [145.98739257607616, -25.69238431574043]}}, {"type": "Feature", "properties": {"norad_id": 66394, "name": "STARLINK-35672", "group": "last-30-days", "lat": -28.565726639660884, "lon": 148.92708619605483, "alt_km": 422.7547993054459, "timestamp": "2025-12-04T03:47:53.334873+00:00", "meta": {"OBJECT_NAME": "STARLINK-35672", "OBJECT_ID": "2025-257Q", "EPOCH": "2025-12-03T09:50:17.398176", "MEAN_MOTION": 15.4934031, "ECCENTRICITY": 0.0001939, "INCLINATION": 53.1588, "RA_OF_ASC_NODE": 308.4152, "ARG_OF_PERICENTER": 89.2215, "MEAN_ANOMALY": 270.9016, "EPHEMERIS_TYPE": 0, "CLASSIFICATION_TYPE": "U", "NORAD_CAT_ID": 66394, "ELEMENT_SET_NO": 999, "REV_AT_EPOCH": 493, "BSTAR": 0.0016114, "MEAN_MOTION_DOT": 0.00090316, "MEAN_MOTION_DDOT": 0}, "tle": {"line1": "1 66394U 25257Q   25337.40992359  .00090316  00000+0  16114-2 0  9993", "line2": "2 66394  53.1588 308.4152 0001939  89.2215 270.9016 15.49340310  4933"}}, "geometry": {"type": "Point", "coordinates": [148.92708619605483, -28.565726639660884]}}, {"type": "Feature", "properties": {"norad_id": 66395, "name": "STARLINK-35681", "group": "last-30-days", "lat": -29.87384611704941, "lon": 150.34205732474737, "alt_km": 422.7739480676264, "timestamp": "2025-12-04T03:47:53.334885+00:00", "meta": {"OBJECT_NAME": "STARLINK-35681", "OBJECT_ID": "2025-257R", "EPOCH": "2025-12-03T09:49:47.662752", "MEAN_MOTION": 15.49325467, "ECCENTRICITY": 0.0001507, "INCLINATION": 53.159, "RA_OF_ASC_NODE": 308.4132, "ARG_OF_PERICENTER": 97.3253, "MEAN_ANOMALY": 262.7928, "EPHEMERIS_TYPE": 0, "CLASSIFICATION_TYPE": "U", "NORAD_CAT_ID": 66395, "ELEMENT_SET_NO": 999, "REV_AT_EPOCH": 486, "BSTAR": 0.00099187, "MEAN_MOTION_DOT": 0.00055138, "MEAN_MOTION_DDOT": 0}, "tle": {"line1": "1 66395U 25257R   25337.40957943  .00055138  00000+0  99187-3 0  9999", "line2": "2 66395  53.1590 308.4132 0001507  97.3253 262.7928 15.49325467  4867"}}, "geometry": {"type": "Point", "coordinates": [150.34205732474737, -29.87384611704941]}}]}